[{"OBJECT_NAME":"GLOBAL-2","OBJECT_ID":"2018-099BG","EPOCH":"2026-03-09T16:47:21.463008","MEAN_MOTION":15.08046936,"ECCENTRICITY":0.00074537,"INCLINATION":97.3697,"RA_OF_ASC_NODE":109.328,"ARG_OF_PERICENTER":127.1924,"MEAN_ANOMALY":232.9986,"EPHEMERIS_TYPE":0,"CLASSIFICATION_TYPE":"U","NORAD_CAT_ID":43812,"ELEMENT_SET_NO":999,"REV_AT_EPOCH":39691,"BSTAR":0.0002614533,"MEAN_MOTION_DOT":3.97e-5,"MEAN_MOTION_DDOT":0},{"OBJECT_NAME":"STARLINK-34845","OBJECT_ID":"2025-184S","EPOCH":"2026-03-09T21:20:10.246272","MEAN_MOTION":15.05649466,"ECCENTRICITY":0.00010476,"INCLINATION":97.6041,"RA_OF_ASC_NODE":122.8987,"ARG_OF_PERICENTER":90.1053,"MEAN_ANOMALY":270.0294,"EPHEMERIS_TYPE":0,"CLASSIFICATION_TYPE":"U","NORAD_CAT_ID":65289,"ELEMENT_SET_NO":999,"REV_AT_EPOCH":3133,"BSTAR":0.00024019379,"MEAN_MOTION_DOT":3.407e-5,"MEAN_MOTION_DDOT":0}]
